[Satellite]
VERSION=1.1
NAME=STARLINK-5262
NICKNAME=STARLINK-5262
TLE1=1 54207U 22141BC  22321.58334491 -.00040615  00000+0 -28607-3 0  9998
TLE2=2 54207  53.2172  42.2181 0002707  16.6368 124.4598 15.73217861  1302
STATUS=0
